[{"OBJECT_NAME":"YAOGAN-30 11C","OBJECT_ID":"2021-065D","EPOCH":"2026-03-09T22:23:40.743744","MEAN_MOTION":15.02147773,"ECCENTRICITY":0.00031824,"INCLINATION":34.9942,"RA_OF_ASC_NODE":157.3601,"ARG_OF_PERICENTER":128.8602,"MEAN_ANOMALY":231.239,"EPHEMERIS_TYPE":0,"CLASSIFICATION_TYPE":"U","NORAD_CAT_ID":49029,"ELEMENT_SET_NO":999,"REV_AT_EPOCH":25372,"BSTAR":0.00028936186,"MEAN_MOTION_DOT":3.857e-5,"MEAN_MOTION_DDOT":0},{"OBJECT_NAME":"CZ-2D R\/B","OBJECT_ID":"2010-027B","EPOCH":"2026-03-09T19:01:31.304352","MEAN_MOTION":15.02332282,"ECCENTRICITY":0.00475082,"INCLINATION":97.9913,"RA_OF_ASC_NODE":95.0303,"ARG_OF_PERICENTER":252.3591,"MEAN_ANOMALY":107.2442,"EPHEMERIS_TYPE":0,"CLASSIFICATION_TYPE":"U","NORAD_CAT_ID":36597,"ELEMENT_SET_NO":999,"REV_AT_EPOCH":85595,"BSTAR":0.00022535675,"MEAN_MOTION_DOT":2.983e-5,"MEAN_MOTION_DDOT":0}]
